COMMENT,ORIGINATOR,NORAD_CAT_ID,OBJECT_NAME,OBJECT_TYPE,CLASSIFICATION_TYPE,INTLDES,EPOCH,EPOCH_MICROSECONDS,MEAN_MOTION,ECCENTRICITY,INCLINATION,RA_OF_ASC_NODE,ARG_OF_PERICENTER,MEAN_ANOMALY,EPHEMERIS_TYPE,ELEMENT_SET_NO,REV_AT_EPOCH,BSTAR,MEAN_MOTION_DOT,MEAN_MOTION_DDOT,FILE,TLE_LINE0,TLE_LINE1,TLE_LINE2,OBJECT_ID,OBJECT_NUMBER,SEMIMAJOR_AXIS,PERIOD,APOGEE,PERIGEE,DECAYED,date
GENERATED VIA SPACETRACK.ORG API,18 SPCS,46301,SPACEBEE-20,PAYLOAD,U,20061AF,2023/2/25 22:10,346464,15.37319677,0.0001827,97.4219,132.5858,264.7192,95.3844,0,999,13716,0.0024558,0.00090684,0,3839003,0 SPACEBEE-20,1 46301U 20061AF  23056.92375401  .00090684  00000-0  24558-2 0  9993,2 46301  97.4219 132.5858 0001827 264.7192  95.3844 15.37319677137169,2020-061AF,46301,6832.176,93.67,455.289,452.793,1,
GENERATED VIA SPACETRACK.ORG API,18 SPCS,46301,SPACEBEE-20,PAYLOAD,U,20061AF,2023/2/26 4:25,166208,15.37374029,0.0001851,97.422,132.8487,263.2032,96.9002,0,999,13720,0.0025078,0.00092793,0,3839754,0 SPACEBEE-20,1 46301U 20061AF  23057.18411072  .00092793  00000-0  25078-2 0  9998,2 46301  97.4220 132.8487 0001851 263.2032  96.9002 15.37374029137206,2020-061AF,46301,6832.015,93.666,455.145,452.615,1,
GENERATED VIA SPACETRACK.ORG API,18 SPCS,46301,SPACEBEE-20,PAYLOAD,U,20061AF,2023/2/26 10:40,200576,15.37426226,0.0001829,97.4219,133.1121,263.5348,96.5688,0,999,13724,0.0027181,0.00100858,0,3841853,0 SPACEBEE-20,1 46301U 20061AF  23057.44445834  .00100858  00000-0  27181-2 0  9999,2 46301  97.4219 133.1121 0001829 263.5348  96.5688 15.37426226137248,2020-061AF,46301,6831.86,93.663,454.975,452.476,1,
GENERATED VIA SPACETRACK.ORG API,18 SPCS,46301,SPACEBEE-20,PAYLOAD,U,20061AF,2023/2/26 16:54,590400,15.3747119,0.0001886,97.4218,133.3752,263.4476,96.6554,0,999,13728,0.002294,0.00085055,0,3843368,0 SPACEBEE-20,1 46301U 20061AF  23057.70479850  .00085055  00000-0  22940-2 0  9992,2 46301  97.4218 133.3752 0001886 263.4476  96.6554 15.37471190137280,2020-061AF,46301,6831.727,93.66,454.881,452.304,1,
GENERATED VIA SPACETRACK.ORG API,18 SPCS,46301,SPACEBEE-20,PAYLOAD,U,20061AF,2023/2/27 3:50,215104,15.37566715,0.0001942,97.422,133.8353,261.2436,98.8589,0,999,13735,0.0026938,0.00100404,0,3843814,0 SPACEBEE-20,1 46301U 20061AF  23058.16037286  .00100404  00000-0  26938-2 0  9993,2 46301  97.4220 133.8353 0001942 261.2436  98.8589 15.37566715137358,2020-061AF,46301,6831.444,93.654,454.636,451.983,1,
GENERATED VIA SPACETRACK.ORG API,18 SPCS,46301,SPACEBEE-20,PAYLOAD,U,20061AF,2023/2/27 3:50,215104,15.37566715,0.0001942,97.422,133.8353,261.2436,98.8589,0,999,13735,0.0026938,0.00100404,0,3846396,0 SPACEBEE-20,1 46301U 20061AF  23058.16037286  .00100404  00000-0  26938-2 0  9993,2 46301  97.4220 133.8353 0001942 261.2436  98.8589 15.37566715137358,2020-061AF,46301,6831.444,93.654,454.636,451.983,1,
GENERATED VIA SPACETRACK.ORG API,18 SPCS,46301,SPACEBEE-20,PAYLOAD,U,20061AF,2023/2/28 3:16,281888,15.37874559,0.0001991,97.4217,134.8213,258.8147,101.2874,0,999,13750,0.0035429,0.00133986,0,3847103,0 SPACEBEE-20,1 46301U 20061AF  23059.13647317  .00133986  00000-0  35429-2 0  9999,2 46301  97.4217 134.8213 0001991 258.8147 101.2874 15.37874559137506,2020-061AF,46301,6830.533,93.636,453.758,451.038,1,
GENERATED VIA SPACETRACK.ORG API,18 SPCS,46301,SPACEBEE-20,PAYLOAD,U,20061AF,2023/2/28 4:50,21440,15.37897977,0.0001966,97.4217,134.8871,258.4911,101.6113,0,999,13751,0.0036569,0.00138487,0,3847542,0 SPACEBEE-20,1 46301U 20061AF  23059.20153960  .00138487  00000-0  36569-2 0  9990,2 46301  97.4217 134.8871 0001966 258.4911 101.6113 15.37897977137513,2020-061AF,46301,6830.463,93.634,453.671,450.985,1,
GENERATED VIA SPACETRACK.ORG API,18 SPCS,46301,SPACEBEE-20,PAYLOAD,U,20061AF,2023/2/28 17:19,209856,15.38001822,0.0002004,97.4214,135.4138,258.5579,101.5441,0,999,13759,0.0026422,0.00099866,0,3847656,0 SPACEBEE-20,1 46301U 20061AF  23059.72205104  .00099866  00000-0  26422-2 0  9999,2 46301  97.4214 135.4138 0002004 258.5579 101.5441 15.38001822137596,2020-061AF,46301,6830.156,93.628,453.39,450.652,1,
GENERATED VIA SPACETRACK.ORG API,18 SPCS,46301,SPACEBEE-20,PAYLOAD,U,20061AF,2023/2/28 17:19,209856,15.38001822,0.0002004,97.4214,135.4138,258.5579,101.5441,0,999,13759,0.0026422,0.00099866,0,3847777,0 SPACEBEE-20,1 46301U 20061AF  23059.72205104  .00099866  00000-0  26422-2 0  9999,2 46301  97.4214 135.4138 0002004 258.5579 101.5441 15.38001822137596,2020-061AF,46301,6830.156,93.628,453.39,450.652,1,
GENERATED VIA SPACETRACK.ORG API,18 SPCS,46301,SPACEBEE-20,PAYLOAD,U,20061AF,2023/3/1 10:30,812576,15.38146985,0.0002085,97.4208,136.1377,256.4648,103.6364,0,999,13770,0.0028944,0.00110069,0,3848834,0 SPACEBEE-20,1 46301U 20061AF  23060.43769459  .00110069  00000-0  28944-2 0  9997,2 46301  97.4208 136.1377 0002085 256.4648 103.6364 15.38146985137705,2020-061AF,46301,6829.726,93.619,453.015,450.167,1,
GENERATED VIA SPACETRACK.ORG API,18 SPCS,46301,SPACEBEE-20,PAYLOAD,U,20061AF,2023/3/2 3:40,896064,15.38276766,0.0002097,97.4214,136.8616,253.1417,106.9598,0,999,13781,0.0022672,0.00086294,0,3849035,0 SPACEBEE-20,1 46301U 20061AF  23061.15327426  .00086294  00000-0  22672-2 0  9995,2 46301  97.4214 136.8616 0002097 253.1417 106.9598 15.38276766137814,2020-061AF,46301,6829.342,93.611,452.639,449.775,1,
GENERATED VIA SPACETRACK.ORG API,18 SPCS,46301,SPACEBEE-20,PAYLOAD,U,20061AF,2023/3/2 16:10,754848,15.38388943,0.0002024,97.4216,137.3884,254.5268,105.5754,0,999,13789,0.0026676,0.0010213,0,3849441,0 SPACEBEE-20,1 46301U 20061AF  23061.67365457  .00102130  00000-0  26676-2 0  9994,2 46301  97.4216 137.3884 0002024 254.5268 105.5754 15.38388943137896,2020-061AF,46301,6829.01,93.604,452.257,449.493,1,
GENERATED VIA SPACETRACK.ORG API,18 SPCS,46301,SPACEBEE-20,PAYLOAD,U,20061AF,2023/3/2 16:10,754848,15.38388943,0.0002024,97.4216,137.3884,254.5268,105.5754,0,999,13789,0.0026676,0.0010213,0,3849487,0 SPACEBEE-20,1 46301U 20061AF  23061.67365457  .00102130  00000-0  26676-2 0  9994,2 46301  97.4216 137.3884 0002024 254.5268 105.5754 15.38388943137896,2020-061AF,46301,6829.01,93.604,452.257,449.493,1,
GENERATED VIA SPACETRACK.ORG API,18 SPCS,46301,SPACEBEE-20,PAYLOAD,U,20061AF,2023/3/3 4:39,46176,15.3852917,0.0002089,97.4217,137.9147,253.6835,106.418,0,999,13797,0.0035537,0.00137335,0,3849796,0 SPACEBEE-20,1 46301U 20061AF  23062.19399359  .00137335  00000-0  35537-2 0  9991,2 46301  97.4217 137.9147 0002089 253.6835 106.4180 15.38529170137977,2020-061AF,46301,6828.595,93.596,451.886,449.033,1,
GENERATED VIA SPACETRACK.ORG API,18 SPCS,46301,SPACEBEE-20,PAYLOAD,U,20061AF,2023/3/3 4:39,46176,15.3852917,0.0002089,97.4217,137.9147,253.6835,106.418,0,999,13797,0.0035537,0.00137335,0,3850163,0 SPACEBEE-20,1 46301U 20061AF  23062.19399359  .00137335  00000-0  35537-2 0  9991,2 46301  97.4217 137.9147 0002089 253.6835 106.4180 15.38529170137977,2020-061AF,46301,6828.595,93.596,451.886,449.033,1,
GENERATED VIA SPACETRACK.ORG API,18 SPCS,46301,SPACEBEE-20,PAYLOAD,U,20061AF,2023/3/3 15:34,404768,15.38647049,0.000212,97.4215,138.3758,254.7784,105.3227,0,999,13804,0.0034306,0.00133008,0,3850400,0 SPACEBEE-20,1 46301U 20061AF  23062.64925237  .00133008  00000-0  34306-2 0  9997,2 46301  97.4215 138.3758 0002120 254.7784 105.3227 15.38647049138044,2020-061AF,46301,6828.246,93.589,451.559,448.664,1,
GENERATED VIA SPACETRACK.ORG API,18 SPCS,46301,SPACEBEE-20,PAYLOAD,U,20061AF,2023/3/4 4:04,886400,15.38795256,0.0002218,97.4214,138.9018,252.3998,107.7005,0,999,13812,0.0034376,0.00133939,0,3851072,0 SPACEBEE-20,1 46301U 20061AF  23063.16950100  .00133939  00000-0  34376-2 0  9992,2 46301  97.4214 138.9018 0002218 252.3998 107.7005 15.38795256138120,2020-061AF,46301,6827.808,93.58,451.187,448.158,1,
GENERATED VIA SPACETRACK.ORG API,18 SPCS,46301,SPACEBEE-20,PAYLOAD,U,20061AF,2023/3/4 18:06,884896,15.38961206,0.0002339,97.4216,139.4943,255.3677,104.7309,0,999,13821,0.0033653,0.00131794,0,3851230,0 SPACEBEE-20,1 46301U 20061AF  23063.75472089  .00131794  00000-0  33653-2 0  9996,2 46301  97.4216 139.4943 0002339 255.3677 104.7309 15.38961206138210,2020-061AF,46301,6827.317,93.57,450.779,447.585,1,
GENERATED VIA SPACETRACK.ORG API,18 SPCS,46301,SPACEBEE-20,PAYLOAD,U,20061AF,2023/3/4 18:06,884896,15.38961206,0.0002339,97.4216,139.4943,255.3677,104.7309,0,999,13821,0.0033653,0.00131794,0,3851350,0 SPACEBEE-20,1 46301U 20061AF  23063.75472089  .00131794  00000-0  33653-2 0  9996,2 46301  97.4216 139.4943 0002339 255.3677 104.7309 15.38961206138210,2020-061AF,46301,6827.317,93.57,450.779,447.585,1,
GENERATED VIA SPACETRACK.ORG API,18 SPCS,46301,SPACEBEE-20,PAYLOAD,U,20061AF,2023/3/5 3:28,574656,15.39079579,0.0002299,97.4216,139.8887,254.2862,105.813,0,999,13827,0.0037659,0.00148384,0,3851516,0 SPACEBEE-20,1 46301U 20061AF  23064.14483304  .00148384  00000-0  37659-2 0  9995,2 46301  97.4216 139.8887 0002299 254.2862 105.8130 15.39079579138274,2020-061AF,46301,6826.967,93.562,450.401,447.262,1,
GENERATED VIA SPACETRACK.ORG API,18 SPCS,46301,SPACEBEE-20,PAYLOAD,U,20061AF,2023/3/5 3:28,574656,15.39079579,0.0002299,97.4216,139.8887,254.2862,105.813,0,999,13827,0.0037659,0.00148384,0,3851939,0 SPACEBEE-20,1 46301U 20061AF  23064.14483304  .00148384  00000-0  37659-2 0  9995,2 46301  97.4216 139.8887 0002299 254.2862 105.8130 15.39079579138274,2020-061AF,46301,6826.967,93.562,450.401,447.262,1,
GENERATED VIA SPACETRACK.ORG API,18 SPCS,46301,SPACEBEE-20,PAYLOAD,U,20061AF,2023/3/5 17:31,540032,15.39241664,0.0002289,97.4213,140.4817,254.9044,105.1948,0,999,13836,0.0036373,0.0014399,0,3852256,0 SPACEBEE-20,1 46301U 20061AF  23064.72994838  .00143990  00000-0  36373-2 0  9998,2 46301  97.4213 140.4817 0002289 254.9044 105.1948 15.39241664138366,2020-061AF,46301,6826.488,93.553,449.915,446.79,1,
